name,address,lat,lng,scale,contact,web,description,source,tags
Le Frigo,,43.9292,2.1469,,,,"Dans cet espace culturel associatif, se côtoient des plasticiens, des musiciens, des comédiens, des chorégraphes à l'occasion d'expositions, de concerts de musiques improvisées, de lectures ou de créations spontanées. http://actal.org/",hetero,src-lieux #icon-503-FF8277
La Ferme de Chanteloup,,43.2403,1.0377,,,,"Elevage de vaches et de chèvres, production de fromages fermiers au lait cru. http://www.duboucheaoreille.fr/index.php?page=gilles-et-sophie-fourcade",hetero,src-lieux #icon-503-FF8277
Le Café Cochon Tigre,,44.4488,1.4425,,,,Café associatif https://fr-fr.facebook.com/lecochontigre?sk=page_map,hetero,src-lieux #icon-503-FF8277
Chez Namphaise,,44.6211,1.6427,,,,Café associatif http://www.cheznamphaise.com/,hetero,src-lieux #icon-503-FF8277
Le Pilou,,44.6976,2.0894,,,,Café Associatif- http://www.prendeignes.fr/spip.php?article106,hetero,src-lieux #icon-503-FF8277
Le Bar à Trucs,,43.4302,1.2231,,,,Bar associatif et petit commerce de proximité - http://www.baratrucs.fr/,hetero,src-lieux #icon-503-FF8277
La Gariotte,,44.5476,1.2626,,,,Café associatif - http://la-gariotte-cafe-associatif-de-pontcirq.association-club.mygaloo.fr/,hetero,src-lieux #icon-503-FF8277
Mécanicycle,,43.6047,1.4442,,,,Atelier de réparation itinérant de vélo à vélo; https://sites.google.com/site/mecanicycle31/home,hetero,src-lieux #icon-503-FF8277
Le banc sonore,,43.8219,1.7243,,,,Café restaurant culturel et solidaire- http://lebancsonore.com/,hetero,src-lieux #icon-503-FF8277
La Cheminée,,44.1789,1.6183,,,,"Pôle culturel en milieu rural, espace de rencontre, de création, d'expérimentation et d'échange autour des arts et de la culture, résidence d'artistes, accueil de séminaires et de groupes, stages- http://lacheminee.fr/",hetero,src-lieux #icon-503-FF8277
Le Lieu Dit,,43.9589,2.8858,,,,Café-restaurant-librairie associatif - www.assolieudit.fr,hetero,src-lieux #icon-503-FF8277
Le Fournil Marletta,,43.9509,2.4758,,,,"Gîtes ruraux et chambres d'hôtes, table paysanne - www.fournilmarietta.com/",hetero,src-lieux #icon-503-FF8277
La ressourcerie d'Aspet,,43.0145,0.8029,,,,"Espace non-marchand, échanges de vêtements, vaisselle, électroménager etc.. http://www.ladepeche.fr/article/2010/10/30/938235-aspet-un-lieu-pour-eviter-la-surconsommation.html",hetero,src-lieux #icon-503-FF8277
Espace culturel Mouneyra,,44.8314,-0.5868,,,,"café associatif, concerts, conférences, expos, bibliothèque, dojo. www.espace-mouneyra.com",hetero,src-lieux #icon-503-FF8277
La Recharge,,44.8373,-0.5713,,,,Epicerie de proximité sans aucun emballage jetable - http://www.la-recharge.fr/,hetero,src-lieux #icon-503-FF8277
Les Augustes,,45.7809,3.0836,,,,"Café-lecture, café-langues, café-philo, ateliers d'expression, débats de société...http://www.cafelesaugustes.fr/",hetero,src-lieux #icon-503-FF8277
Librairie Horizons,,45.8907,3.1129,,,,Librairie indépendante - librairiehorizons.blogspot.com/,hetero,src-lieux #icon-503-FF8277
Librairie Papageno,,45.78,3.0851,,,,"Librairie indépendante, animations diverses autour du livre et du voyage- papageno.hautetfort.com/",hetero,src-lieux #icon-503-FF8277
La Clef,,45.2922,3.3834,,,,"Café-lecture associatif, animations socioculturelles http://www.cafelecturebrioude.fr/",hetero,src-lieux #icon-503-FF8277
La Vache Carrée,,45.8845,3.1302,,,,Café-jeux- http://lavachecarree.blogspot.fr/,hetero,src-lieux #icon-503-FF8277
La Maison de Parents en Bourgogne,,47.3204,5.0807,,,,Lieu d'accueil et d'hébergement des familles et proches de personnes hospitalisées- http://mdp21.fr/,hetero,src-lieux #icon-503-FF8277
La Cambuse,,48.2501,-1.8252,,,,"Café associatif, espace de rencontre intergénérationnel, interculturel et inter-associatif, animations socio-culturelles et pédagogiques - www.assolacambuse.org",hetero,src-lieux #icon-503-FF8277
Nature Créative/la Grange de Laveau,,47.3323,0.189,,,,"Eco-site, hébergement en yourte et en tipi, grange associative, éducation à l'environnement, partage de savoirs en éco-construction, herboristerie et conserverie- http://lagrangedelaveau.wordpress.com/",hetero,src-lieux #icon-503-FF8277
Le Guidoline,,49.4382,1.0988,,,,"Café culturel associatif, atelier vélo, animations diverses autour de l'écomobilité et de l'économie solidaire- www.guidoline.com/",hetero,src-lieux #icon-503-FF8277
Le Clos Romain,,43.5785,3.3638,,,,Ferme en agro-écologie (olives et huiles) et gîtes écologiques - http://closromain.fr/,hetero,src-lieux #icon-503-FF8277
La Berlue,,44.3231,3.5942,,,,Librairie indépendante-http://librairielaberlue.tumblr.com/,hetero,src-lieux #icon-503-FF8277
La Chèvrerie des Felges,,44.2705,3.7595,,,,"Hébergement éco-touristique (yourtes), élevage caprin et transformation fromagères-www.yourtes-cevennes-cevennes-gorgesdutarn.fr/",hetero,src-lieux #icon-503-FF8277
Ferme des Natalys,,43.3413,3.4853,,,,"Ferme en agriculture biodynamique, maraîchage, arboriculture, plantes médicinales, volailles, animations pédagogiques, boulangeries, boulangerie (en projet)- http://www.lesnatalys.fr/",hetero,src-lieux #icon-503-FF8277
L'Atelier 23,,45.8412,1.911,,,http://latelier23.free.fr/,"Bar, restaurant, épicerie (produits locaux et issus du commerce équitable), animations socio-culturelles",hetero,src-lieux #icon-503-FF8277 up1601
La petite Fabrique,,45.4248,1.563,,,,"Café culturel associatif, animations socio-culturelles, échanges de savoirs, paniers paysans et dépôts-vente de produits locaux, artisanaux et issus du commerce équitable-http://fabriquesolidaire.wifeo.com/",hetero,src-lieux #icon-503-FF8277
A.P.P (Atelier Pédagogique Personnalisé),,45.4248,1.563,,,,-,hetero,src-lieux #icon-503-FF8277
Constance Social Club,,45.7494,1.9359,,,,"Centre social en milieu rural en devenir, café culturel associatif, espace de création, d'expression et d'échange",hetero,src-lieux #icon-503-FF8277
Le Caf'Art,,47.2845,-1.2557,,,,"Café culturel, épicerie de produits bio et locaux, bouquinerie, cédéthèque- www.le-caf-art.com/",hetero,src-lieux #icon-503-FF8277
La Maison des Littératures,,47.2593,-0.0747,,,,"Librairie indépendante, poésie et littérature contemporaine, résidence d'artistes, interventions en milieu scolaire et dans l'espace public- http://lamaisondeslitteratures.blogspot.fr/",hetero,src-lieux #icon-503-FF8277
L'Equipage,,47.1437,-1.6934,,,,Café-Librairie associatif- http://lequipage.jimdo.com/,hetero,src-lieux #icon-503-FF8277
Le Café Citoyen,,50.6326,3.0631,,,,"Café restaurant coopératif, lieu de rencontres, de débats et d'échanges- www.cafecitoyen.org",hetero,src-lieux #icon-503-FF8277
Epicerie La Moutièrette,,46.9544,-0.3911,,,,"Epicerie associative, produits locaux et issus de l'agriculture biologique-http://www.leguideduflaneur.com/pages/deux-sevres-79/balade-a-thouars/epicerie-de-moutiers-sous-argenton.html",hetero,src-lieux #icon-503-FF8277
Le Loubatas,,43.6481,5.5832,,,,"Ecogîte Provençal insolite, d'éducation à l'environnement (séjours éducatifs et de loisirs, formations, animations, etc...)www.loubatas.org/",hetero,src-lieux #icon-503-FF8277
Le point de lumière,,44.0561,5.0481,,,,Café alternatif citoyen-www.lepointdelumiere.com/,hetero,src-lieux #icon-503-FF8277
"Le 3C, café culturel Citoyen",,43.5258,5.4547,,,,"Café associatif, animations socio-culturelles, bibliothèque participative-http://cafeculturelcitoyen.org/un-cafe-associatif/",hetero,src-lieux #icon-503-FF8277
Le Lay t'motiv,,45.9556,4.2214,,,,"Café culturel associatif, lieu de rencontres intergénérationnelles et interculturelles en milieu rural- http://www.laytmotiv.fr/",hetero,src-lieux #icon-503-FF8277
ImaginaCtion,,46.075,4.6139,,,,"Café culturel associatif, ateliers variés pour petits et grands, improvisations théâtrales, projections-débats, soirées jeux...http://asso-imaginaction.fr/",hetero,src-lieux #icon-503-FF8277
L'embarqu'Café,,44.8957,4.6447,,,,Café culturel associatif- http://www.embarqucafe.fr/,hetero,src-lieux #icon-503-FF8277
Le Cause-Toujours,,44.9252,4.8997,,,,Café culturel associatif http://www.resocafeasso.fr/le-cause-toujours-26/,hetero,src-lieux #icon-503-FF8277
Jardin partagé Histoire de Nature,,45.2898,4.7326,,,,"Jardin partagé, ateliers de cuisine, animations culturelles et d'éducation à l'environnement-www.oui-transition07.org/index.php?...histoire-de-nature.",hetero,src-lieux #icon-503-FF8277
Le KoToPo,,45.7697,4.8333,,,,"Espace culturel international, café des langues, cuisine et musique du monde, bar international, bibliothèque, jeux, animations culturelles (concerts, débats, ateliers, rencontres, etc..)http://www.kotopo.net/",hetero,src-lieux #icon-503-FF8277
SchlaU,,48.1376,11.5641,,,,Ecole de la deuxième chance pour les réfugiés mineurs non accompagnés.http://www.schlau-schule.de/,hetero,src-lieux #icon-503-FF8277
Babel Studios,,11.6315,104.8813,,,,Studio radio fondé par des réfugiés Cambodgiens exilés des Etats-Unis. Espace d'expression et de création artistique pour les jeunes en difficulté de Phnom Penh- http://www.tourismcambodia.com/directory/news-media/video-production-services/11771_babel-studios.htm,hetero,src-lieux #icon-503-FF8277
Food Coop park Slope,,40.6748,-73.9769,,,,"Coopérative de consommation, supermarché bio et/ou local auto-géré par les clients- http://www.foodcoop.com/?page=contact",hetero,src-lieux #icon-503-FF8277
Café Plùm,,43.7055,2.1372,,,,"Café culturel, librairie, salle de spectacleA la fois café de village, librairie alternative de proximité et lieude programmation culturelle et artistique, le Café Plùm a été pensé parses créateurs comme un pôle culturel en milieu rural.http://www.cafeplum.org/",hetero,src-lieux #icon-503-FF8277
Chez ta Mère,,43.6101,1.4405,,,,Café associatif et culturel - Toulouse (Haute-Garonne),hetero,src-lieux #icon-503-FF8277
Le refuge des Ombradoux,,44.7522,0.8823,,,,"Lieu d'accueil, cette association se veut un soutien pour des personnesdans le besoin.",hetero,src-lieux #icon-503-FF8277
éco-lieu Jeanot,,43.9336,-0.9206,,,,"Jardin éducatif d’agro-écologie nourricier, qui est ouvert à tous. On ytrouve un rucher, une marre, des animaux, des parcelles de cultures,des toilettes sèches, un espace camping, une cuisine collective, uncentre de ressource ! http://www.jeanot.fr/",hetero,src-lieux #icon-503-FF8277
Magiq casaü,,43.3586,-0.1493,,,,"(Mouvement des oasis en tout lieu). Refuge du vivant, ce lieu se veutêtre un lieu de création d'une terre saine où se réutilise les énergiesrenouvelables,etc.http://www.oasisentouslieux.org/IMG/pdf/MAGIQ_CASAU.pdf",hetero,src-lieux #icon-503-FF8277
La Belle Verte,,44.3887,-0.3282,,,,"(Mouvement des oasis en tout lieu). L'association a pour objetl'écologie pratique, elle est une centre de formation, un centre deressources, un lieu de sensibilisation à l'agroécologie.http://la-belle-verte.net",hetero,src-lieux #icon-503-FF8277
L'éco-centre du Périgord,,45.5736,0.9974,,,,"Un lieu d’informations, de démonstrations, d’expérimentations et deformations concernant les techniques écologiques dans le domaine dubâtiment, de l’énergie, de l’eau et du paysage.http://ecocentre.org/",hetero,src-lieux #icon-503-FF8277
Terre de possible,,46.2775,4.541,,,,"(Mouvement oasis en tout lieu). Un lieu d'accueil, de partage et deformations. Verger en biodynamie avec mutualisation de matériel.http://oasisentouslieux.org/IMG/pdf/Terre_de_Possibles.pdf",hetero,src-lieux #icon-503-FF8277
Compagnie de Cirque Galapiat,,48.4979,-2.6897,,,,"Résidence d'artistes, cirque itinérant, centre de ressource et decréation artistique. http://galapiat-cirque.fr/Histoire.html",hetero,src-lieux #icon-503-FF8277
La Marmilie,,43.6119,1.4137,,,,"Restaurant associatif, café culturelhttp://lamarmilie.over-blog.com/",hetero,src-lieux #icon-503-FF8277
Le Couvent alternatif,,48.7756,-3.3045,,,,"Implanté dans le village de Camlez situé dans les côtes d'armor, celieu regroupe des commerçants militants autour d’une cour servant delieu d’animations et de festivités de toutes sortes.http://www.couventalternatif.com/",hetero,src-lieux #icon-503-FF8277
Association Autrement,,47.8494,-4.3092,,,,"Eco-lieu (verger, potager bio) a pour objectif de développer desprojets et des activités allant dans une démarche de respect del'environnement et de développement des relations entrehumains…http://fermautrement.free.fr/",hetero,src-lieux #icon-503-FF8277
Le Champ Commun,,47.9199,-2.2803,,,,"Coopérative de services de proximité : épicerie paysanne, caféculturel,chantiers participatifs, organisation de festival...http://www.lechampcommun.fr/",hetero,src-lieux #icon-503-FF8277
Confluence,,47.9055,-1.7876,,,,"Lieu de vie à trois kilomètres de Rennes, cet éco-hameau se constituede vergers, de jardins et on y trouve des habitats nomade (yourtes,dômes géodésiques). Sur ce site on y partage des savoirs et dessavoirs-faire. http://oasisentouslieux.org",hetero,src-lieux #icon-503-FF8277
"L'Oasis du ""Val heureux""",,47.9175,1.831,,,,"(Mouvement oasis en tout lieu). 250 m2 de jardins biologique y sontaménagés. Il s'agit d'un projet de jardins partagés, une expérienceexpérimentale en milieu urbain. http://oasisentouslieux.org/",hetero,src-lieux #icon-503-FF8277
Le Café des pratiques,,47.2516,6.0351,,,,"Espace de convivialité, de jeux et de fabrication...http://lecafedespratiques.blogspot.fr/p/association.html",hetero,src-lieux #icon-503-FF8277
La Ferme de Bec Hellouin,,49.2297,0.7227,,,,"ferme expérimentale fonctionnant selon les principes de lapermaculture, et centre de séminaires, de recherche et de formation.www.fermedubec.com",hetero,src-lieux #icon-503-FF8277
La Boîte à Lutins,,43.6035,1.4774,,,,"Le café des enfants est un vrai café !!!On y discute plus ou moins fort. On y chahute gaiement. On y ritbeaucoup !!Un bistrot de quartier ordinaire, ou presque…www.laboitealutins.fr",hetero,src-lieux #icon-503-FF8277
La Bergerie de Villarceaux,,49.1173,1.7139,,,,"Lieu unique de dialogue sur les défis de demain, la Bergerie vouspropose une offre complète d'hébergement, de séminaire et derestauration bio, au sein de l'ancien corps de ferme de la Bergerie quia été entièrement rénové écologiquement et dans le respect dupatrimoine architectural local.http://bergerie-villarceaux.org/",hetero,src-lieux #icon-503-FF8277
Le Maquis,,43.366,2.6818,,,,"Le Maquis, c’est avant tout une ferme où se mêlent agriculturepaysanne, engagement social et action culturelle.www.cravirola.com",hetero,src-lieux #icon-503-FF8277
Terre du Cinoble,,42.8616,2.4599,,,,"Le projet « Terre du Cinoble » a pour objectif de proposer de manièreinnovante et globale une solution locale à quatre problèmes actuels dela société concernant l’environnement, le logement, l’emploi et larevitalisation du milieu rural.www.terredevieducinoble.org",hetero,src-lieux #icon-503-FF8277
Camping de la Font Blanche,,42.8493,2.0768,,,,"Gîte et camping associatif et participatif, espaces d'échanges desavoirs, stages et chantiers collectifs",hetero,src-lieux #icon-503-FF8277
Le battement d'ailes,,45.223,1.6728,,,,"Centre agroécologique et culturelLe battement d’ailes se positionne comme un « accompagnateur » œuvrantavec et pour les acteurs de son territoire pour une transformationsociale, écologique et économique au service de l’Homme ici,aujourd’hui et demain partout.www.lebattementdailes.org",hetero,src-lieux #icon-503-FF8277
Ardheia,,45.9246,2.3627,,,,"Partage de savoirs en écoconstruction, construction de cabanes etd'habitations diverses.http://ardheia.free.fr",hetero,src-lieux #icon-503-FF8277
Eco-centre du Pays Nantais - HEOL,,47.6196,-1.3802,,,,"La Maison Autonome : Economie d'énergie et énergie alternatives,assainissement écologique, jardins.www.heol2.org",hetero,src-lieux #icon-503-FF8277
Le Caf'cause,,44.6745,1.8785,,,,"Café culturel associatifLe Caf’Causse, géré par l’association REISSA à Assier propose un lieud’échanges et rencontres.http://reissa.jimdo.com/caf%C3%A9-associatif-caf-causse/",hetero,src-lieux #icon-503-FF8277
La ZAD Notre-Dame-des-Landes,,47.3809,-1.7111,,,,"Collectif de lutte contre l'aéroport de Notre-Dame-des-Landes. Pour unelutte radicale contre le projet d'aéroport! Terre et liberté!cf. « Les avions, c'est plus de saison ""http://lutteaeroportnddl.com/",hetero,src-lieux #icon-503-FF8277
Oasis des 7 cercles,,47.555,-0.2335,,,,"Lieu de vie écologique et solidaire, accueil de groupes et d'individus,séjours de rupture, stages et animations (Mouvement des Oasis en touslieux).www.oasisdes7cercles.com",hetero,src-lieux #icon-503-FF8277
Le jardin des possibles,,47.4548,4.29,,,,"Un jardin collectif et partagé dédié à la rencontre et à la biodiversitéUn lieu que nous voulons vivant, libre, ouvert à toutes les initiativesdans le respect de la faune, la flore et du milieu.http://www.empreintes-auxois.org/jardin-des-possibles/",hetero,src-lieux #icon-503-FF8277
L'équitable café,,43.2945,5.3831,,,,"Café associatif d'information et de sensibilisation alternatifécologique et citoyen, l'Équitable Café propose depuis 9 ans ateliers,projections-débats, cycles d'informations thématiques, rencontresd'auteurs, mais aussi des produits bio, locaux dans une démarcheéquitable, tout cela dans un lieu collectif et ouvert au grand public.http://equitablecafe.org/",hetero,src-lieux #icon-503-FF8277
Le potager d'un curieux,,43.8537,5.4564,,,,"Maraichage biologique, conservation et échange de semences paysanne,animations pédagogiques.Visite des jardins, vente de semences rares ""pour jardiniers amateurs""et de légumes oubliés.La presse en parle.",hetero,src-lieux #icon-503-FF8277
Ferme pédagogique de l'Oiselet,,44.1033,4.9705,,,,"Ferme pédagogique en agriculture biologique, vignes, jardin de légumesanciens, verger conservatoire de fruits oubliés, échange de semences,accueil de groupes, hébergement (yourtes) et animations diverses.www.oiselet.com/fr",hetero,src-lieux #icon-503-FF8277
InYoza,,43.2925,5.3831,,,,"Un lieu qui réunit l'art, la cuisine, la convivialité d'un bon repaspartagé dans un décor très personnalisé.Une cuisine innovante et expérimentale qui, dès le départ, a fait leurforce!http://inyoza.blogspot.fr/",hetero,src-lieux #icon-503-FF8277
La KuiZin,,43.3107,5.3872,,,,"La kuizin est un lieu de proposition, de partage et d’échange, unterrain d’expérimentation pour faire germer actions, idées,alternatives...http://lakuizin.org/l-asso/",hetero,src-lieux #icon-503-FF8277
Jardin de Gibraltar,,43.3108,5.3874,,,,"Lieu de vie dans les quartiers populaires de Marseille, activitéspédagogiques, ludiques et artistiques autour du jardinage, del’environnement et de l’éco-construction.http://lartichaut.net/",hetero,src-lieux #icon-503-FF8277
Le Hameau de buis / La ferme des enfants,,44.4068,4.2218,,,,"Lieu de vie et d'accueil autour d'une école. Agriculture vivrière etagro-écologique, éco-construction, accueil, stages, formation(Mouvement des Oasis en tous lieux).www.la-ferme-des-enfants.com",hetero,src-lieux #icon-503-FF8277
Au fil de l'O,,43.569,1.4014,,,,Restaurant et bar culturelLe projet porté et géré par des habitants du quartier est un lieu derencontre et de gastronomie ouvert à tous.http://www.etymon.fr/Les-projets/Au-Fil-de-l-O/,hetero,src-lieux #icon-503-FF8277
Oasis Bellecombe,,44.5032,5.3852,,,,"Eco-site, hébergement en habitat léger (yourtes, tipis et roulottes),stages et visites (Mouvement des Oasis en tous lieux).www.oasisbellecombe.com",hetero,src-lieux #icon-503-FF8277
Ecoasis de la Pinsole (le Pré au yourtes),,45.2232,4.549,,,,"Ferme en polyculture, habitat bioclimatique et responsable, chantiersd'éco-construction, stages et animations variés (culture, agriculture,santé, développement personnel...)www.yourtes.supersite.fr",hetero,src-lieux #icon-503-FF8277
Le Vieil Audon,,44.5062,4.364,,,http://www.levielaudon.org,"Centre d’éducation à l’environnement, au développement durable et à lacoopération (membre du réseau REPAS [d'échanges et de pratiques alternatives et solidaires])",hetero,src-lieux #icon-503-FF8277
Boulangerie La Tartine,,45.8038,6.2086,,,,Boulangerie coopérative autogérée (membre du réseau REPAS) La presse en parle !,hetero,src-lieux #icon-503-FF8277
La Miecyclette,,45.724,4.8837,,,,"Boulangerie artisanale et biologique (coopérative), groupement d'achatet livraison à vélohttp://www.lamiecyclette.fr/",hetero,src-lieux #icon-503-FF8277
3 ptits pois,,45.7481,4.8411,,,,"Epicerie conviviale de produits bio, locaux et équitable, en vrac(coopérative de distribution)http://www.3ptitspois.fr/",hetero,src-lieux #icon-503-FF8277
Ardelaine,,44.813,4.4855,,,,Coopérative de transformation et de commercialisation de la laine +Café Librairie + Restaurant écolo et solidaire (La cerise sur l'agneau)www.ardelaine.fr,hetero,src-lieux #icon-503-FF8277
De la Ferme au Quartier,,45.4595,4.3949,,,,"Circuit court similaire aux AMAP, son mode d’organisation permet àplusieurs centaines de familles d’accéder à des produits de qualitéissus d'une agriculture paysanne et locale.www.delafermeauquartier.org",hetero,src-lieux #icon-503-FF8277
Maison de l'écologie,,45.7738,4.8358,,,,"Centre de ressources / ludothèque / médiathèque, espace d'accueil etd'hébergement pour des associations solidaires, des foires et desmanifestations diverses autour de l'écologie.http://maisonecologie.lyon.free.fr/",hetero,src-lieux #icon-503-FF8277
Le Café de Burgaud,,43.7944,1.1632,,,,"Café associatifUn lieu associatif créé pour faire vivre une autre culture, pour lesnouveaux talents et leurs multiples expressions.http://cafeduburgaud.over-blog.com/",hetero,src-lieux #icon-503-FF8277
Terre de Possibles,,46.2847,4.536,,,,"Une association pour se relier à la terre, favoriser la rencontreautour d'un réseau d'échange et de partage, pour une vie plus simple,plus écologique et solidaire...http://terre-de-possibles.org/",hetero,src-lieux #icon-503-FF8277
Le Mas de beaulieu,,44.4557,4.1961,,,,Formation et sensibilisation à l'agroécologie.Transmission de l’agroécologie comme pratique et éthique visantl’amélioration de la condition de l’être humain et de son environnementnaturel.www.terre-humanisme.org,hetero,src-lieux #icon-503-FF8277
La ferme autogérée du Roya,,44.0619,7.6128,,,,"Si vous voulez passer quelques jours au calme, participer aux travauxde la ferme, venir comme volontaire, participer aux différentesmanifestations, chantiers et stages, participer à une démarchealternative et engagée, les portes vous sont ouvertes (voir Séjour -Accueil et Volontariat).www.collectif-far.org",hetero,src-lieux #icon-503-FF8277
La frênaie,,46.2967,-0.6912,,,,"Eco-camping, Fabrication artisanale, vente et location de yourtes et detipis, animations nature dans le Marais Poitevin.www.lafrenaie.org",hetero,src-lieux #icon-503-FF8277
Le Verger conservatoire de Pétré,,46.4517,-1.1026,,,,Conservation de variétés anciennes de pommes et de poires ettransmission de savoir-faire.En savoir +,hetero,src-lieux #icon-503-FF8277
Café Charbon,,46.9954,3.169,,,,Scène de musiques actuelles amplifiées (consulter la programmation) -Nevers (Nièvre)www.aucharbon.org,hetero,src-lieux #icon-503-FF8277
AMAP Les paniers mouillés,,46.2954,-0.6359,,,,Association de maintien d'une Agriculture Paysanne dans le MaraisPoitevinhttp://les-paniers-mouilles.wifeo.com/(Distribution des paniers à La petite épicerie du Vanneau),hetero,src-lieux #icon-503-FF8277
Bar à T'M,,44.338,1.5467,,,,Café-épicerie associatifhttp://bar-a-themes-escamps.monsite-orange.fr/index.html,hetero,src-lieux #icon-503-FF8277
SCOP Andines,,48.9436,2.3474,,http://www.andines.com/,,"Magasin de détail, importateur et grossiste de produits issus ducommerce équitable (Nord - Nord et Nord - Sud).",hetero,src-lieux #icon-503-FF8277
Eco-Village auto-construit de Pescomaggiore,,42.356,13.5092,,,,"Tourisme solidaire, techniques agricoles traditionnelles, rénovation ducentre historique, protection de l'environnement.Initiative des citoyens de Pescomaggiore pour promouvoir comme biencommun la promotion sociale, culturelle, environnementale et économique.www.pescomaggiore.org",hetero,src-lieux #icon-503-FF8277
Afro shop,,52.5517,13.3485,,,,un lieu de liberté et de solidarité,hetero,src-lieux #icon-503-FF8277
Can Masdeu,,41.4457,2.1575,,,,"Collectivité vivante et autonome, banque de graine, espace de gratuité,espace collectif, jardins partagés, formation à l'agro-écologie etpermaculture.www.canmasdeu.net",hetero,src-lieux #icon-503-FF8277
Le Jardin des Fraternités Ouvrières,,50.7421,3.219,,,,"Oasis en permaculture, à Mouscron. Cours de permaculture, groupementd'achat bio... Infos sur le forum d'oléotransition",hetero,src-lieux #icon-503-FF8277
Kirjakahvila (book  café),,60.4529,22.2665,,,,"Lieu de rencontres, d'expo, de projections, de concerts et de débat. Unlieu de détente, avec de bons cafés, des brunchs et un marché partagé.www.kirjakahvila.org",hetero,src-lieux #icon-503-FF8277
Kulttuuriolohuone (le  salon de culture),,60.4393,22.2608,,,,"Lieu de vie, de culture et de convivialité. Salon de thé. Librairie.Activités socio-culturelles surprenantes et rafraîchissantes. A placeto share peacefully...http://martinkulttuuriolohuone.wordpress.com/",hetero,src-lieux #icon-503-FF8277
Annis,,61.4877,21.7889,,,,"Usine réhabilitée en espace culturel. Lieu d'expression culturelle etde liberté, représentations théâtrales et expérimentations artistiquesvariées.http://www.pori.fi/annis/inenglish.html",hetero,src-lieux #icon-503-FF8277
Koroinen,,60.4661,22.2928,,,,"Espace de formation aux techniques de travail de matériauxtraditionnels. Ouverts à tous, ce lieu de partage des savoirs proposele café aux promeneurs le dimanche.www.koroinen.fi",hetero,src-lieux #icon-503-FF8277
La Bouche à Oreilles,,43.4449,0.7361,,,,"Café restaurant culturel de ruralité. On y trouve des concerts (du jazzau rock en passant par la musique classique), des repas en circuitscourts, des expos, des soirées hebdomadaires de belote et d'échec, del'informatique en libre accès, un service Relais de l'économiesolidaire, etc... cafe.boucheaoreille@free.fr",hetero,src-lieux #icon-503-FF8277
Café Neio,,37.994,23.7077,,,,Café culturel associatif en autogestion au coeur d'Athènes.http://www.european-village.org/kafeneio.asp,hetero,src-lieux #icon-503-FF8277
World of mother nature,,39.6307,19.763,,,,Agriculture naturelle (selon les préceptes de Masanobu Fukuoka) - Corfu.https://www.facebook.com/pages/World-of-Mother-Nature/417872534978569,hetero,src-lieux #icon-503-FF8277
PanoTaKato,,39.6089,19.8331,,,,"Ferme en agriculture biologique (production et transformation degingembre, de cacahuètes, d'olive et de fruits). - Corfuhttps://www.facebook.com/panw.takatw/about",hetero,src-lieux #icon-503-FF8277
Spithari Waking Life,,38.1529,23.9618,,,,"Ecole et pédagogie alternative (centrée sur les questions detransition), agriculture hydroponique, construction de dômesgéodésiques - Marathonas (Athènes).",hetero,src-lieux #icon-503-FF8277
Le Souleilla,,43.0395,1.3008,,,,"Le Souleilla c'est au départ un projet communal, un projet qui chercheà palier la fermeture d'un des derniers commerce du village et ainsirouvrir un lieu original qui répond à un besoin de services,d'animation en campagne, ouvert à tous. http://souleilla.com/index.php?",hetero,src-lieux #icon-503-FF8277
La pistouflerie,,43.2271,0.7923,,,,Bistrot Concert Bibliothèque Associatif à Cassagnabère ! Ouvert depuisle 20 mars 2010.Concerts les Vendredis et Samedis parfois plus...http://lapistouflerie.blogspot.fr/,hetero,src-lieux #icon-503-FF8277
La Croix d'Alric,,44.1285,1.8795,,,,Café associatifhttp://lacroixdalric.over-blog.com/,hetero,src-lieux #icon-503-FF8277
Ecole de Cirque Pré En Bulles,,43.6003,0.4889,,,,"Lieu de découverte et d'apprentissage des arts du cirque,stages/séjours de vacances en été autour du cirque et del'environnement pour des enfants de 6 à 17 ans -http://preenbulles.free.fr/Idrac-Respailles (Gers)",hetero,src-lieux #icon-503-FF8277
Le Zazou bar,,43.6097,2.2372,,,,"Café repaire qui est le reflet même de la culture française, il est undes lieux incontournables de Castres... avec un programme musicaldiversifié !http://lajourneedemademoiselle.over-blog.com/article-le-zazou-74759008.html",hetero,src-lieux #icon-503-FF8277
Le Bar Ouf,,44.4466,1.4431,,,,Bar-café alternatif dans le centre ville de Cahors,hetero,src-lieux #icon-503-FF8277
L'ibère familier,,43.7493,1.9968,,,,"Un espace associatif, une salle de spectacles, un refuge, une cantine,un cyber, une petite bouffée d’air, un lieu incontournable « bourréd’humanité »http://liberefamilier.org/",hetero,src-lieux #icon-503-FF8277
L'atelier idéale (La Chapelle),,43.6137,1.4367,,,,"Ateliers, rencontres, concerts, scène ouverteL’expression de la critique de tous les mécanismes d’aliénationcollective et individuelle, de tous les mécanismes qui tendent àconfondre accès à la citoyenneté et accès à la consommation. Espace deprise parole citoyenne.www.atelierideal.lautre.net",hetero,src-lieux #icon-503-FF8277
Folles Saisons,,43.5785,1.3912,,,,"Café culturel, restaurant - Toulouse (Haute-Garonne)Folles Saisons197 Route de Saint-Simon31100 Toulouse, France+33 5 62 14 64 85follessaisons.org",hetero,src-lieux #icon-503-FF8277
L'ile Asso,,43.3731,1.6699,,,,Café culturel associatif.Lîle est un lieu d'experimentations... protéiforme.Lîle est un caféculturel associatif autoconstruit et en permanente autoconstruction.http://lile.asso.fr/,hetero,src-lieux #icon-503-FF8277
MIX'ART MYRYS,,43.6179,1.4204,,,,"Lieu de création artistique autogéréLe projet Mix’Art Myrys s’envisage comme un espace d’interactions àtous les niveaux des processus de création artistique, dubouillonnement, foisonnement d’idées, envies, aux lieux nécessaires àla fabrication de l’œuvre.http://mixart-myrys.org/",hetero,src-lieux #icon-503-FF8277
La Grainerie,,43.6261,1.485,,,,"Fabrique des arts du cirque et de l'itinérance (espaces d’entraînement,de création, de diffusion, de fabrication et de stockage, bureaux,rencontres)www.la-grainerie.net",hetero,src-lieux #icon-503-FF8277
La Roulotte al Païs,,43.5823,2.2776,,,,Association Mesclavie : animations ludiques et culturelles en milieurural (caravane équitractée)Roulotte al Pais : un projet original pour stimuler les échanges et lavie locale en fonction de leur besoin et permettre à la collectivitéd'être au cœur du projet .http://www.mesclavie.com/index.php/projets-associatifs/roulotte,hetero,src-lieux #icon-503-FF8277
Partage Faourette (Maison des Chômeurs et centre social associatif),,43.5789,1.4147,,,,"Lieu d'échange et de convivialité, accueil, écoute et atelierCe lieu favorise l'émergence de projets individuels et collectifs quece soit dans le domaine de la citoyenneté, de la culture, du sport ...ou celui de l'activité économique.http://asso.partage-faourette.pagesperso-orange.fr/",hetero,src-lieux #icon-503-FF8277
Le B-A-b-a,,43.8996,1.8974,,,,une librairie engagée au coeur de Gaillac,hetero,src-lieux #icon-503-FF8277
Apéritif co-créatif Solidees,,43.6028,1.454,,http://www.solidees.org,,"Ces apéros ont pour but de permettre aux citoyens de se rencontrer etd'évoquer leurs besoins, leurs idées et projets socialement innovants.",hetero,src-lieux #icon-503-FF8277
Le Remue-Méninges,,43.0691,0.4653,,,,"Café culturel associatifL'association Remue-Méninges fait vivre à Anères un espace derencontres et d'échanges dans un lieu culturel, convivial et ouvert àtous : Le Café du Village.http://remue.meninges.free.fr/",hetero,src-lieux #icon-503-FF8277
Le VagabonSage,,43.5972,1.4576,,,,"Bus éco-partageur, interculturel et trans-formateur du Collectif deVoyage Equitable et Solidaire de Midi-PyrénéesEspace d'animation, centre de ressource des alternatives en régionéco-logiquement aménagé.http://cvesmp.over-blog.com/pages/Le_bus_ecopartageur-7040009.html",hetero,src-lieux #icon-503-FF8277
La Libraithèque - Le Droit à la paresse,,44.4467,1.4439,,,,Librairie-bibliothèque de l'histoire et l'actualité des mouvementssociaux français et internationaux. L'association organise aussi desdébats et des rencontres.http://libraitheque.blogspot.fr/,hetero,src-lieux #icon-503-FF8277
L'îlelegal,,43.4349,1.6825,,,,Galerie d'art post-industriellehttp://lilegal.org/,hetero,src-lieux #icon-503-FF8277
Vallée & Co,,44.21,1.8883,,,,"Jardin pédagogique qui développe et promeut des activités agricoles,artisanales, notamment par l'organisation d'animations et chantiersparticipatifs.http://association-vallee-et-co.blogspot.fr/",hetero,src-lieux #icon-503-FF8277
Le jardin des Funambules,,44.1279,1.8795,,,,"Jardin associatif en permaculture, avec une équipe de jardinier quis'élargit pour conduire de réels projets.http://www.lesfunambules.fr/blog-des-funambules.html",hetero,src-lieux #icon-503-FF8277
Le jardin des possibles,,44.2767,1.8746,,,,"Dans ce jardin des possibles, de nombreuses formations, staged'initiation à la permaculture sont proposés pendant l'année.http://www.lejardindespossibles.org/",hetero,src-lieux #icon-503-FF8277
Ferme du Pouzat,,44.647,1.8427,,,,Il s'agit d'une ferme agrobiologique spécialiste du bois Raméalfragmenté. http://fermedupouzat.free.fr/?page_id=26,hetero,src-lieux #icon-503-FF8277
Le Pot Ethique,,43.4902,2.3784,,,,"Café associatif, créatif et récréatifUn verre de citoyenneté,Une pincée d'échange,Une tartine de documentation,Remuez et dégustez avec convivialité!www.lepotethique.org",hetero,src-lieux #icon-503-FF8277
Jardins Saint Amadou,,43.1111,1.723,,,,"Ferme de culture et de transformation de plantes médicinales au cœur del’Ariège. Composés de jardins à taille humaine, il s'agit d' un lieu departage et d’éducation à l’environnement, que l'on peut découvrir lorsd’une simple visite…ou lors d’un stage ! http://jardins-st-amadou.fr/",hetero,src-lieux #icon-503-FF8277
Ferme éco-citoyenne de la Bouzigue,,43.6778,1.2334,,,,"L’objectif de ce lieu est de développer le concept d’écocitoyenneté,d’acquérir des connaissances sur les interactions homme-nature, par larencontre, l’observation, l’action, la responsabilisation.http://www.fermebouzigue.com",hetero,src-lieux #icon-503-FF8277
Domaine de Mauvaisin,,43.3544,1.5501,,,,"Au sein de ce domaine, y est proposer de mettre à disposition desterres et des bâtis pour un groupe de personnes décidées à s'investirdans l'esprit de l'économie participative. Eco-construction, forge,jardins.",hetero,src-lieux #icon-503-FF8277
La Taurounié,,43.7504,1.9084,,,,"Jardins paysans, semences anciennes",hetero,src-lieux #icon-503-FF8277
Ferme pédagogique des 50,,43.5525,1.4969,,,,La ferme de Cinquante est une association créée en 1986 pour favoriserl’éducation à l’environnement pour tous.http://ferme50.le-pic.org/,hetero,src-lieux #icon-503-FF8277
Oasis de Lintourel,,43.9553,2.8873,,,,"Permaculture, jardins partagés, échanges de savoirs, thérapiesalternatives, accueil (mouvement des Oasis en tous lieux)http://oasisdelentiourel.over-blog.com/",hetero,src-lieux #icon-503-FF8277
Art'Ideo,,43.497,1.4144,,,,"Dans une démarche de respect et de protection de l’environnement,la nature sauvage de ce lieu y évolue à son rythme. De nombreux stages,chantiers participatifs sont proposés. http://www.artideo.net/",hetero,src-lieux #icon-503-FF8277
2bouts/Friture,,43.595,1.4439,,http://friture.net/,,"Éducation, sensibilisation, Initiation aux techniques de laconstruction écologique !",hetero,src-lieux #icon-503-FF8277
Eco-centre de l'Ariège et de l'Aude,,43.0102,1.4735,,,,"Association Ecorce - Pôle d'activités La Ferme d'Icart organise desstages et des chantiers d'éco-construction, partage de savoirs.www.ecorce.org",hetero,src-lieux #icon-503-FF8277
Librairie-Tartinerie de Sarrant,,43.7741,0.9292,,,,"Ce café associatif a pour ambition de créer un lieu de rencontresautour du livre en milieu rural. En tant que librairie, ce café répondà une demande de proximité et invite les usager à se retrouver autoursd'animations diverses. http://www.lires.org/qui-sommes-nous/",hetero,src-lieux #icon-503-FF8277
"Etre mobile, c'est permis",,43.5762,1.4119,,,,"Auto école associative, elle propose des formations adaptés à despersonnes en parcours d'insertion sociale ou professionnelle.http://emcp.fr/index.html",hetero,src-lieux #icon-503-FF8277
Labo de la Vélorution,,43.5887,1.4305,,,,atelier de réparation de vélos en auto-gestion.http://velorutiontoulouse.free.fr/,hetero,src-lieux #icon-503-FF8277
Le zinc Campus de Vélorution,,43.5608,1.4634,,,,Vélorution organise aussi des atéliers velo au campus campus deRangueil de l'Université Paul Sabatie. Du mardi au jeudi.http://velorutiontoulouse.free.fr/doku.php?id=ateliers:autres_ateliers_toulouse,hetero,src-lieux #icon-503-FF8277
La Maison du vélo,,43.6108,1.4525,,http://www.maisonduvelotoulouse.com,,"Service location, atelier vélo, vélocythèque, vélo-école",hetero,src-lieux #icon-503-FF8277
Le Cun de Larzac,,44.056,3.1421,,,,"Un éco-camping proposé par l'association Champs de Monde. Il s'agitd'un lieu totalement autonome par rapport au réseau électronucléaire enFrance, qui participe à de nombreux réseaux de pratiques solidaires etalternatives. http://www.larzac.org/cun/",hetero,src-lieux #icon-503-FF8277
L'escale du Cardouets,,43.0583,0.0489,,,,"Au cœur des Pyrénées, des hébergements insolites et écologiques entourte saison ! http://www.yourte-pyrenees.com/index.html",hetero,src-lieux #icon-503-FF8277
Eco Hameau d'Andral,Vigan (Lot),44.5844,1.4571,,,http://web.andral.org/,Habitat groupé écologique,hetero,src-lieux #icon-503-FF8277 up1603
Avenir Nouvelle Maison des Chomeurs,,43.5777,1.4619,,,,"L’association Avenir, nouvelle maison des chômeurs (reconnue d’intérêt général depuis 2012) a pour missions d’accueillir, de connaître, d’orienter, de conseiller tous les publics qui la fréquentent, d’aider à leur socialisation ou resocialisation (Chômeurs et les précaires) en créant une mixité variée (étudiants, salariés, retraités…)http://www.maisondeschomeurs.org",hetero,src-lieux #icon-503-FF8277
"FA Sol Mi, la Fabrique Solidaire des Minimes",,43.6233,1.4413,,,,"Accueil, orientation, accompagnement des personnes en situation d'isolement, de précarité, ainsi que toute personne en demande, quelque soit son âge ou sa situation sociale.http://www.clapmp.com/annuaire/fiche.php?id=1194",hetero,src-lieux #icon-503-FF8277
Et pourquoi pas ?,,44.0605,2.1117,,,,"Maison relais d'acceuil, à vocation sociale, qui offre aux amoureux dela nature un cadre idéal pour profiter de la richesse du développementlocal.",hetero,src-lieux #icon-503-FF8277
L'ancien Carmel de Condom,,43.9507,0.3815,,,,"Résidents permanents, vacanciers et pèlerins, groupes, associations etartistes sont les bienvenu dans ce lieu d'accueil solidaire qui proposediverses activités http://www.lanciencarmel.com/",hetero,src-lieux #icon-503-FF8277
Les Nouveaux Troubadours,,43.7761,2.698,,,,"Cette association propose plusieurs séjours de vacances, chantiers etstages, dans un petit village du sud-Aveyron. Autour de différentsthèmes développant la créativité : Construction, Sculpture, Art,Mosaïque, Forge,Céramique, Nature ! De véritables constructionsinsolites !www.lesnouveauxtroubadours.fr",hetero,src-lieux #icon-503-FF8277
Le Bar à TM,,44.3673,1.634,,,,"café - épicerie associatif   Escamps (Lot)     Cette association a pour objet la gestion d'un commerce multi-service, bar-café-épicerie, vente directe et sur commande, dépôt et vente de gaz, dépôt de pain, location de support d'annonces et de vitrines d'exposition.L'association organisera des manifestations et des événements tout au long de l'année.             http://bar-a-themes-escamps.monsite-orange.fr/",hetero,src-lieux #icon-503-FF8277
Au chabrot,,43.6014,1.4412,,,,"Bar à vins . A déguster également Au Chabrot, une bière artisanale, la Biérataise brassée en Haute-Garonne. Assiettes de charcuterie, de fromages, avec des produits régionaux, le tout dans une ambiance conviviale et chaleureuse.                    http://www.auchabrot-toulouse.fr/",hetero,src-lieux #icon-503-FF8277
Terra Nova,"18 rue Gambetta, TOULOUSE",43.6026,1.4414,,contact@librairie-terranova.fr - 05 61 21 17 47,http://librairie-terranova.fr/,"Terra Nova, depuis sa création en 2004, vous invite à interroger le monde à travers ses écrivains, ses réalisateurs, ses artistes, ses penseurs, ses luttes sociales.Lieu qui propose des livres d'éditeurs installés en marge de l'industrie du livre. La librairie est aussi pensée comme un lieu de vie sociale. Régulièrement dans l'espace café sont organisées des rencontres - (vente planisphères renversantes à 7,5 SOL-violette l’unité ou 8,5€)",hetero,src-lieux #icon-503-FF8277 text words up1601
La Kazba,,43.5777,1.404,,,,Foyer des étudiants (UFR Sciences Espaces et Société - Université Toulouse Le Mirail) - Toulouse (Haute-Garonne) http://www.univ-tlse2.fr/accueil/vie-des-campus/vie-etudiante/associations/foyer-ses-la-kazba-48928.kjsp,hetero,src-lieux #icon-503-FF8277
L'Usine Théâtre,,43.1329,0.974,,,,"L'Usine théâtre est un endroit convivial proposant une programmation  théâtre jeune public et tout public, ainsi que musique classique. Des résidences de compagnies seront possibles tout au long de l'année...   http://lusinetheatre.wifeo.com/",hetero,src-lieux #icon-503-FF8277
La Tourmente,,43.5438,1.4784,,,,"Péniche de transport au service de la culture, du patrimoine et des territoires - Quelque part entre Bordeaux et Sète (Siège : Ramonville-Saint-Agne)   http://www.vivre-le-canal.fr/index.php?la=fr",hetero,src-lieux #icon-503-FF8277
Le lieu commun,,44.8602,1.8903,,,,"Café associativeLe lieu commun a pour objet les échanges multiculturels, la diffusionde savoirs alternatifs et l’organisation de manifestations.http://lelieucommun.over-blog.com",hetero,src-lieux #icon-503-FF8277
Domaine de Matens,,43.9293,1.868,,,,"Situés sur la crête des coteaux du vignoble de Gaillac, deux gîtesindépendants, des activités en plein air, vignoble...http://matens.free.fr/index.htm",hetero,src-lieux #icon-503-FF8277
Findhorm Ecovillage,,57.651,-3.5917,,,,"Findhorn fait partie des 500 écovillages existant à travers le monde. Issu d'une communauté d'inspiration New Age, qui a choisi de s'installer dans le nord de l'Ecosse en 1962, il est le plus ancien d'Europe.       http://www.ecovillagefindhorn.com/",hetero,src-lieux #icon-503-FF8277
Fabrique d'Objets Libres,,45.7539,4.8757,,,,"Espace de création et de fabrication numérique ouvert à tous, la Fabrique d'Objets Libres permet à chacun de découvrir, d'inventer et de fabriquer tout type d'objet.http://www.fablab-lyon.fr/",hetero,src-lieux #icon-503-FF8277
Alter'Eco 30,,43.7032,4.2581,,,,"Lieu de vie alternatif de deux hectares qui comprend:  une activité agricole d'élevage, un fournil, une maison éco-rénovée, une coopérative de produits bio et locaux auto-gérée, une salle de classe en pédagogie alternative- ce lieu propose: Stage, accompagnement de projets, diffusion d'outils etc...  http://www.altereco30.com",hetero,src-lieux #icon-503-FF8277
La Prairie,,43.5729,1.4569,,,,École (maternelle et primaire) associative d'éducation nouvelle (pédagogie alternative : Ecole Nouvelle) http://www.ecole-laprairie.fr/,hetero,src-lieux #icon-503-FF8277
Ecole Fourio,,43.7434,1.178,,,,"École alternative pour les enfants présentant des troubles DYS (dyslexie, dysorthographie, dyscalculie…)http://www.systemedys.com/",hetero,src-lieux #icon-503-FF8277
Ecole Les Tournesols,,43.5843,1.4246,,,,École (maternelle) Pédagogie Steiner-Waldorf http://www.steiner-waldorf.org/ecoles_steiner/toulouse.html,hetero,src-lieux #icon-503-FF8277
Les Ateliers en Herbe,,43.6545,1.5952,,,,"ardins pédagogiques, potagers en lasagnes et plantes médicinales, ateliers de productions de cosmétiques naturelles, de savons artisanaux et de teintures - http://www.lesateliersenherbe.com/",hetero,src-lieux #icon-503-FF8277
La Pouzaque,,43.4864,2.1761,,,,Centre polyvalent d'éducation à l'environnement et au développement durable. http://www.lapouzaque.org/,hetero,src-lieux #icon-503-FF8277
Eco-centre de l'Ariège et de l'Aude,,42.9912,1.4241,,,,"(association Ecorce - Pôle d'activités La Ferme d'Icart) : Stages et chantiers d'éco-construction, partage de savoirs -http://www.ecorce.org",hetero,src-lieux #icon-503-FF8277
Ecole de Cirque Pré en bulles ,,43.5244,0.4569,,,,"Lieu de découverte et d'apprentissage des arts du cirque, stages/séjours de vacances en été autour du cirque et de l'environnement pour des enfants de 6 à 17 ans. http://preenbulles.free.fr/",hetero,src-lieux #icon-503-FF8277
Espace de gratuité de Saint-Girons,,42.9829,1.1461,,,,"Tout les derniers samedi du mois, au marché de Saint-Giron, un espacesubversif contre la société marchande : le don !",hetero,src-lieux #icon-503-FF8277
La Glanerie,,43.6468,1.4222,,,,"La Glanerie est une ressourcerie, elle propose aux usagers deréutiliser leurs déchets... http://www.la-glanerie.org/",hetero,src-lieux #icon-503-FF8277
Bric à Brac,,43.1444,-0.0232,,,,"Brocante permanente, vide grenier et débarras enjoués !http://www.brocante-lourdes.com/brocante-lourdes-acces.php",hetero,src-lieux #icon-503-FF8277
La recyclerie du Rouergue,,44.3349,2.0216,,,,Ressourcerie qui vous débarrasse de vos vieux objets et chantierd'insertion à Villefranche de Rouergue,hetero,src-lieux #icon-503-FF8277
Le Recantou,,43.6094,1.408,,,,"Épicerie paysanne et culturelleUn lieu unique, une véritable unité de lieu, foyer d’un fusionnementmultiforme.http://l.apres.over-blog.com/",hetero,src-lieux #icon-503-FF8277
Goshen - Ferme de la Chaux,,47.2185,4.6716,,,,"Lieu d'accueil et agriculture solidaire: Eco-hameau, gîtes, ferme agro-écologique et animations.La Bussière-sur-Ouche ( Côte-d'Or) http://www.goshen.fr/",hetero,src-lieux #icon-503-FF8277
Ô Saveurs Paysannes,,43.9154,2.0967,,,,Un magasin de producteurs fermiers et un espace de restauration. Desproduits bio qui passent du jardin aux assiettes !http://www.o-saveurs-paysannes.fr/,hetero,src-lieux #icon-503-FF8277
Les Gastrosophes,,43.2127,1.171,,,,"Des cuistots itinérants qui partagent cette même volonté du respect duvivant de la terre jusqu'à l'assiette. A bord d'une ""roulotte sauvage"",ces fins gastronomes ne craignent ni les foules des festivals ni lespetites soirées privées ! http://lesgastrosophes.over-blog.com/",hetero,src-lieux #icon-503-FF8277
Association Ecolonie,,48.0494,6.1061,,,,"Centre écologique aux activités multiples. véritable centre d'accueil écologique européen, Ecolonie propose un espace d'accueil pour vacanciers avec de nombreuses activités et des capacités d'hébergement. Le lieu travaille aussi autour d""élevage de chèvres et développe des espaces de jardins écologiques- Hennezel ( Vosges) http://ecolonie.org",hetero,src-lieux #icon-503-FF8277
L'Équi'Table,,42.9655,1.6089,,,,"Un espace inter-associatifUn lieu collectif, convivial, ouvert et géré par tous.http://www.lequitable.org/",hetero,src-lieux #icon-503-FF8277
Les jardins de la solidarité,,44.1695,2.53,,,,Ces jardins de Cocagne contribuent à la promotion de l'agriculturebiologique en Aveyron. Ils proposent des chantiers d'insertion et vousdonne la possibilité d'accéder à des produits locaux.www.jardinsdecocagnemidipyrenees.org,hetero,src-lieux #icon-503-FF8277
Le jardin du Chayran,,44.1006,3.0778,,,,"Proposant des chantiers d'insertion par la maraîchage biologique,l'association Le jardin de Chayran distribue chaque semaine auxadhérents des légumes saison produit par le Jardin.http://www.lejardinduchayran.org",hetero,src-lieux #icon-503-FF8277
Jardins de Cocagne de Fleurance,,43.8495,0.6632,,,,"Des chantiers d'insertion, des productions biologiques ...http://www.jardinsdecocagnemidipyrenees.org/spip.php?article14",hetero,src-lieux #icon-503-FF8277
Le jardin solidaire de l'Adour,,43.6386,-0.0219,,,,"Ce jardin solidaire de l'Adour, dans le Gers, propose des ateliers etdes chantiers d'insertions.. et vous invite à découvrir sa productionagricole, maraîchage, agriculture biologique.http://www.siaegers.fr/decouvrir/fiche/20/le-jardin-solidaire-de-l-adour",hetero,src-lieux #icon-503-FF8277
Les Jardins du Girou,,43.6816,1.5847,,,,"Premier Jardin de Cocagne aux portes de Toulouse, il regroupe desjardins maraîchers biologique à vocation social et professionnel.http://www.jardinsdugirou.org/index.html",hetero,src-lieux #icon-503-FF8277
Les Jardins du Comminges,,43.0767,0.5968,,,,"Des ateliers pédagogiques, des paniers de légumes... et chaque semestreune lettre d'information ""Semons solidaires"" qui a pour objectif devaloriser le travail des bénévoles, d'informer sur les actionsentreprises par l'association, etc. http://www.jardinsducomminges.org/",hetero,src-lieux #icon-503-FF8277
Les jardins du Volvestre,,43.275,1.1769,,,,"Activités de maraîchage biologique au service de l'économie sociale etsolidaire qui s'accompagne de vente de paniers de légumes bio, frais etlocaux. http://www.jardinsduvolvestre.org/",hetero,src-lieux #icon-503-FF8277
Les Jardins des Gorges de L'Aveyron,,44.131,1.8188,,,,-,hetero,src-lieux #icon-503-FF8277
Jardin de Labastide-Saint-Pierre,,43.9118,1.3218,,,,L'objectif est d'accueillir 15 personnes au sein de la structure pourdévelopper l'agriculture biologique tout en les aidant à se réinsérerdans le monde du travail. http://www.jardinsdecocagnemidipyrenees.org,hetero,src-lieux #icon-503-FF8277
Le Caméléon,,43.5996,1.433,,,,Café associatifIl est conçu comme un lieu d'échange et un espace de représentationouvert au plus grand nombre.http://www.maaads.org/,hetero,src-lieux #icon-503-FF8277
Saveurs paysannes,,44.609,2.0218,,,,"Saveurs Paysannes vous permet de vous approvisionner au même endroitdirectement auprès des producteurs sur une large diversité de produits:viandes, légumes, produits laitiers, pains, épiceries.www.leader-quercyrouergue.org",hetero,src-lieux #icon-503-FF8277
"Le Fort ""La Galline""",,42.4938,3.0955,,,,"Lieu autonome, solidaire, citoyen, écologique et artistique : espace d'échange autour du vin (laboratoire), restaurant Slow Food, gîte, espace de détente et de bien-être, ateliers d'éco-construction, potager et vergers biologique, résidences d'artistes et manifestations culturelles.http://lefortdelagalline.blogspot.fr/",hetero,src-lieux #icon-503-FF8277
La Menuiserie,,44.3546,2.5726,,,,"Lieu de rencontre, de découverte et d'expression culturelle, résidence d'artiste.http://lamenuiserie.net",hetero,src-lieux #icon-503-FF8277
Eco-Hameau de verfeil-Sur-Seye,,44.1866,1.8761,,,,Habitat groupé écologique - Verfeil-sur-Seye (Tarn-et-Garonne)http://verfeil-eco.over-blog.org/,hetero,src-lieux #icon-503-FF8277
Habitat Groupé du Canal,,43.5427,1.4856,,,,Habitat groupé écologique. https://sites.google.com/site/habitatgroupeducanal/,hetero,src-lieux #icon-503-FF8277
Palanca,,43.5701,1.4673,,,,Société coopérative d'étude et de conseil en développement durable - http://palanca.fr/,hetero,src-lieux #icon-503-FF8277
Echo Poutre y Paille,,43.1016,1.8513,,,,Conseil et accompagnement pour la construction de maisons individuelles en matériaux écologiques - http://echo-poutre-y-paille.blogspot.fr/,hetero,src-lieux #icon-503-FF8277
Les Compaillons,,43.6144,1.4618,,,,"Réseau Français de la construction Paille (RFCP) : Promotion de la construction en paille, soutien au développement et à la professionnalisation du secteur, mis en relation des acteurs - http://www.compaillons.eu/",hetero,src-lieux #icon-503-FF8277
Serpettes et Chaudrons,,43.0021,0.5827,,,,"Produits cosmétiques artisanaux, partage de savoirs autour du monde végétal et de l'utilisation des plantes - http://serpettesetchaudrons.wordpress.com/",hetero,src-lieux #icon-503-FF8277
REPLIC,,43.6203,3.8236,,,,Accompagnement à la création d'entreprise d'utilité sociale et environnementale en réponse à des problématiques de territoire ,hetero,src-lieux #icon-503-FF8277
"Baluchon, mon dîner maison",,48.8809,2.4322,,,,"(entreprise d'insertion par l'activité économique) : Service de restauration adressés aux cadres de la région Parisienne. Préparation et livraison de menus fait maison à partir de produits sains, locaux et de saison - http://www.baluchon.fr/",hetero,src-lieux #icon-503-FF8277
Association LAO,,45.0245,4.4933,,,,"Promotion des circuits courts, mise en avant d'alternatives à la grande distribution, éducation au goût - http://laoasso.blogspot.fr/",hetero,src-lieux #icon-503-FF8277
Ecolodève,,43.7335,3.3255,,,,"Négoce de matériaux écologiques, conseils en éco-construction - http://www.ecolodeve.fr/",hetero,src-lieux #icon-503-FF8277
Collectif Ardèche en Transition,,44.6178,4.3877,,,,Collectif d'acteurs engagés en faveur d'une transition énergétique et sociale durable en Ardèche - http://www.oui-transition07.org/,hetero,src-lieux #icon-503-FF8277
Association Philadent,,48.7904,2.4556,,,,Centre de santé dentaire accessible aux personnes en situation de précarité - http://www.fondation-macif.org/les-soins-dentaires-accessibles-tous,hetero,src-lieux #icon-503-FF8277
There Are Other Alternatives (TAOA),,48.8566,2.3522,city,,,Soutien et promotion des monnaies sociales et complémentaires - http://www.taoaproject.org/,hetero,src-lieux #icon-503-FF8277
Veloxygène Amiens ,,49.8871,2.2871,,,,Promotion de la bicyclette comme moyen de transport urbain à Amiens et son agglomération - http://veloxygene-amiens.com/ ,hetero,src-lieux #icon-503-FF8277
L'escargot dans les orties,,45.5376,1.2158,,,,Compagnie de théâtre écolo-rigolo-équitable - http://www.lescargotdanslesorties.org/,hetero,src-lieux #icon-503-FF8277
"Ikinat, les vacances écologiques et naturelles",,48.8268,2.2245,,,,"Promotion des acteurs de l'éco-tourisme, référencement des offres d'hébergement écotouristiques ( gîtes et chambres d'hôtes) - http://www.ikinat.com/",hetero,src-lieux #icon-503-FF8277
Partners for Youth Empowerment,,40.7128,-74.0059,,,,"Organisation de jeunesse visant à renforcer les capacités des jeunes et des acteurs de jeunesse à travers des camps, des formations et séminaires - http://www.pyeglobal.org/#",hetero,src-lieux #icon-503-FF8277
Kino,,45.5168,-73.56,,,,"(mouvement international) : Mise en relation des professionnels et des amateurs de cinéma, soutien à la création cinématographique (court-métrage), professionnalisation/développement des techniques et des pratiques pour des créations audacieuses et de qualité - http://kino00.com/",hetero,src-lieux #icon-503-FF8277
Les Nouveaux Troubadours,,43.7764,2.6993,,,,"Constructions insolites, Musée des arts buissonniers - Saint-Sever-du-Moustierhttp://www.lesnouveauxtroubadours.fr/",hetero,src-lieux #icon-503-FF8277
Les Rèples d'Alègre,,44.4749,2.4626,,http://lesreples.e-monsite.com/,,-,hetero,src-lieux #icon-503-FF8277
Café Sauvage,,49.1825,-0.3719,,,,"Super lieu pour venir boire un thé ou même une bière, manger un petit quatre heure, écouter de la musique, voir une performance improvisée ou non, lire un livre dans un hamac, et même pourquoi pas faire une sieste sur des coussins.Mais c’est surtout, des ateliers hebdomadaires pour par exemple, apprendre à faire du pain, reconnaître les plantes Sauvages, recycler des objets, et où chacun s’aidera et échangera ses compétences!http://cafesauvage.fr/ ",hetero,src-lieux #icon-503-FF8277
Ambiance Bois,,42.7268,1.9353,,,,"Eco-construction, fabrication et vente de matériaux en bois, aménagement, rénovation, soutien à l'auto-construction (coopérative autogérée) (membre du réseau REPAS)www.ambiance-bois.com (http://www.ambiance-bois.com/)",hetero,src-acteurs #icon-959-F4EB37
Le chanvre mellois,,46.2312,-0.0396,,,,"Production, transformation, distribution        et développement de l'utilisation du chanvre textile dans        l'isolation de l'écohabitat.www.chanvre-mellois.com (http://www.chanvre-mellois.com/)",hetero,src-acteurs #icon-959-F4EB37
I.C. Catering,,46.1613,-1.1508,,https://www.facebook.com/pages/Initiative-Catering-IC/190787387663205?id=190787387663205&sk=info,,"Cuisine itinérante et        participative, transmission et échanges de savoirs-faire autour        de l'alimentation.",hetero,src-acteurs #icon-959-F4EB37
Peleti,,41.267,24.5009,,,,Réseau pour la préservation des semences de variétés anciennes - Panaresti (Drama),hetero,src-acteurs #icon-959-F4EB37
Geo Cities,,40.8025,22.0447,,,,"Agriculture naturelle, selon les préceptes de Masanobu Fukuoka (agriculture sous couvert forestier) - Edessa (Pella)http://www.geocities.com/naturalfarming/ (http://www.geocities.com/naturalfarming/)",hetero,src-acteurs #icon-959-F4EB37
CAP Nomade,,40.488,1.4437,,,,"Atelier de création multimédia, éducation populaire à l'image et aux médias.CAP Nomade souhaite créer des ponts entre les peuples, les réalités, mais avant tout entre les personnes.  http://capnomade.blogspot.fr/ (http://capnomade.blogspot.fr/)",hetero,src-acteurs #icon-959-F4EB37
Compagnie DésArtmélés,,43.4574,2.0053,,,,"Marionnettes et arts du cirque, stages ,ateliers et spectacles.La Compagnie DésArtmélés a pour objectif d’enseigner, transmettre, véhiculer un esprit responsable et une conscience de l’interdépendance en favorisant la convivialité et l’expression créatrice individuelle/collective vers un large public.http://desartmeles.blogspot.fr/ (http://desartmeles.blogspot.fr/)",hetero,src-acteurs #icon-959-F4EB37
Le Matou dell'Arte,,44.61,2.0324,,,,"Promotion des arts et de la culture, spectacles, expositions, débats, rencontres - http://www.lematou.org/",hetero,src-acteurs #icon-959-F4EB37
Comme un poisson dans l'Art,,43.605,1.4552,,,,"Accompagnement et promotion des artistes locaux émergents, organisations et productions d'événements",hetero,src-acteurs #icon-959-F4EB37
Les Fondeurs de briques,,43.7728,1.6866,,,,Maison d'édition indépendante -http://fondeursdebriques.perso.neuf.fr/,hetero,src-acteurs #icon-959-F4EB37
Lekti,,43.9423,2.1486,,,,"Librairie numérique et bibliothèque sonore, numérisation et diffusion de livres issus de lignes éditoriales exigeantes portées par des structures indépendantes- http://www.lekti-ecriture.com/bloc-notes/index.php/post/2011/03/22/Le-projet-Lekti-pour-biblioth%C3%A8ques-entre-dans-sa-phase-finale",hetero,src-acteurs #icon-959-F4EB37
L'épicurieux,,43.6047,1.4442,,,,Cuisine gourmande et équilibrée nomade ! - http://www.lepicurieux.net/,hetero,src-acteurs #icon-959-F4EB37
La Revue Durable,,46.8058,7.1597,,,,Revue de vulgarisation francophone sur l'écologie et le développement durable pour s'informer et s'engager ! http://www.larevuedurable.com/ (http://www.larevuedurable.com/),hetero,src-outils #icon-960-3F5BA9
Passerelle éco,,46.8406,4.2728,,,,Revue trimestrielle fondamentalement écologique qui relais des infos sur les ressources alternatives. http://www.passerelleco.info (http://www.passerelleco.info/auteur.php?id_auteur=830#bio),hetero,src-outils #icon-960-3F5BA9
Radio Saint Ferréol,,44.7285,5.0227,,,,"Radio associative engagée (Education populaire, culture pour tous)http://www.radiosaintfe.com/ (http://www.radiosaintfe.com/)",hetero,src-outils #icon-960-3F5BA9
Carnaval du Grand Roméo de la Verrerie,,43.6038,1.4617,,,,"En Mars, l'association Grand Roméo vous invite à son carnaval déjanté du quartier de la Verrerie à Toulouse. http://www.grandromeo.com/rubrique.php?rub=Contact&ssrub= (http://www.grandromeo.com/rubrique.php?rub=Contact&ssrub=)",hetero,src-outils #icon-960-3F5BA9
"Soirée ""La relâche""",,43.6138,1.4367,,,,"La Relâche est une expérience d’autogestion d’un soir par semaine (le lundi) par les utilisateurs de ce lieu.  On se détend et l’on s’interroge aussi sur le social et le politique, comme art de vivre ensemble. http://www.atelierideal.lautre.net/spip.php?rubrique2 (http://www.atelierideal.lautre.net/spip.php?rubrique2)",hetero,src-outils #icon-960-3F5BA9
Les soirée de l'APRES,,43.6094,1.408,,,,"L'occasion de s'engager auprès de cette association écologique et culturelle, pour une Relocalisation de l’Économie dans un monde Solidaire. http://l.apres.over-blog.com/ (http://l.apres.over-blog.com/)",hetero,src-outils #icon-960-3F5BA9
La Guinguette du printemps,,43.5822,2.2776,,,,"L' Association Mesclavie (http://www.mesclavie.com/) (mai)  souhaite encourager le public à découvrir les associations locales, les acteurs socio-culturels et les artistes d'horizons différents, œuvrant pour le lien social, chacun à son échelle et selon ses moyens.http://www.mesclavie.com/index.php/projets-associatifs/ginguette (http://www.mesclavie.com/index.php/projets-associatifs/ginguette)",hetero,src-outils #icon-960-3F5BA9
Débattons dans les rues,,43.5998,1.4406,,,,"Débattons dans les rues, c’est un festival expérimental  d’éducation populaire désobéissant et festif, et pis avec de l’humour  aussi! (mai / juin)http://www.debattonsdanslesrues-toulouse.org/ (http://www.debattonsdanslesrues-toulouse.org/)",hetero,src-outils #icon-960-3F5BA9
Marché ô initiatives,,43.1248,1.175,,,,"marché d'initiatives en présence de producteurs et associations avec des débats/forums, projections et animations autour d'une thématique. St Croix volvestre ( 09).",hetero,src-outils #icon-960-3F5BA9
Le sol violette,,43.6273,1.4221,,,,"Une monnaie éthique, locale et citoyenne, dans la région toulousaine. http://www.sol-violette.fr/ (http://www.sol-violette.fr/)",hetero,src-outils #icon-960-3F5BA9
La Sonnante,,43.0651,0.1491,,,,La Sonnante est une monnaie locale complémentaire des Baronnies- Lannemezan (Hautes-Pyrénées). http://monnaie-locale-complementaire.net/sonnante/ (http://monnaie-locale-complementaire.net/sonnante/),hetero,src-outils #icon-960-3F5BA9
SEL Cocagne,,42.5852,1.4137,,,,"Système d'échange local (SEL) pour Toulouse et ses environs. Il permet d'échanger des savoirs, des biens et des services, en fonction des besoins, des disponibilités et des savoirs-faire de chacun. Ce n'est pas un système de troc direct, mais un système d'échanges multilatéral. http://www.selcocagne.org (http://www.selcocagne.org/site/spip.php?article7)",hetero,src-outils #icon-960-3F5BA9
Grain de Sel,,43.6062,2.2413,,,,"Système d'échanges de biens et de services, le Grain de sel est développé par l'association Troc Sel Castres. Il a pour but de privilégier l'échange, le contact, l'entraide et la convivialité ! http://www.trocselcastres.fr/ (http://www.trocselcastres.fr/)",hetero,src-outils #icon-960-3F5BA9
L'âge de faire,,44.1505,5.9922,,,,"L'âge de faire est une association mais aussi un journal qui offre à ses lecteurs des outils pour leurs permettre de mettre en œuvre leurs idées. Il témoigne des expériences alternatives en matière de réappropriation de l'économie, de création de lien social, d'écologie, d'engagement citoyen. http://www.lagedefaire-lejournal.fr/ (http://www.lagedefaire-lejournal.fr/)",hetero,src-outils #icon-960-3F5BA9
Revue Silence,,45.7768,4.834,,,,"Revue écologique géré par une association indépendante de tout mouvement ou parti. Ses publications sont diverses dans les domaines de l'environnement (énergie, agriculture, etc.) et de la société (non violence, décroissance, féminisme, etc.). http://www.revuesilence.net/ (http://www.revuesilence.net/)",hetero,src-outils #icon-960-3F5BA9
Friture mag,,43.6016,1.4528,,,,"Média des ""Possibles dans le Grand Sud"", ce Magasine trimestriel propose des reportages, décryptages, entretiens, portfolios sur tout ce qui fait l'actualité des crises et des espoirs. Vous pouvez vous abonner à ce journal indépendant et créatif.",hetero,src-outils #icon-960-3F5BA9
Transrural initiatives,,48.8806,2.3318,,,,"Revue associative des territoires ruraux, elle est portée par le mouvement d'éducation populaire. Elle offre ainsi un point de vue original sur l'actualité qui s'attache en particulier à valoriser les initiatives locales. http://www.transrural-initiatives.org/ (http://www.transrural-initiatives.org/)",hetero,src-outils #icon-960-3F5BA9
Festival de la Bohème,,43.4616,1.3307,,,,"Musiques actuelles et du monde, animations variées sur les thèmes de l'Altérité, de la norme, du voyage - http://www.festivaldelaboheme.com/",hetero,src-outils #icon-960-3F5BA9
Les Zartsendouc,,43.0263,1.7996,,,,Festival en Vallée du Douctouyre - http://zartsendouc.fr/,hetero,src-outils #icon-960-3F5BA9
Festival Résistances,,42.9641,1.6052,,,,"Diffusion d'oeuvres cinématographiques engagées et peu diffusées, animations socio-culturelles variées (apéro-concerts, débats, projections plein-air, etc.)sur le thème des Résistances - http://festival-resistances.fr/#&panel1-1",hetero,src-outils #icon-960-3F5BA9
La Louve,,48.885,2.3503,,,,Groupement d'achat de produits de qualité - http://dons.cooplalouve.fr/,hetero,src-outils #icon-960-3F5BA9
La petite Salamandre,,46.9996,6.9344,,,,La revue des enfants curieux de nature - http://www.salamandre.net/,hetero,src-outils #icon-960-3F5BA9
La hulotte,,49.4312,4.8427,,,,revue naturaliste et écolo pour petits et grands - http://lahulotte.fr/,hetero,src-outils #icon-960-3F5BA9
Gelcek Daha,,38.9637,35.2433,,,,¨Plateforme internet destinée à limiter le chômage des jeunes et à promouvoir l'entrepreneuriat social en Turquie - http://www.gelecekdaha.net/,hetero,src-outils #icon-960-3F5BA9
